[{"OBJECT_NAME":"STARLINK-2164","OBJECT_ID":"2021-017AE","EPOCH":"2026-03-09T13:31:35.480640","MEAN_MOTION":15.30202781,"ECCENTRICITY":0.0001169,"INCLINATION":53.1593,"RA_OF_ASC_NODE":194.1029,"ARG_OF_PERICENTER":99.597,"MEAN_ANOMALY":260.5163,"EPHEMERIS_TYPE":0,"CLASSIFICATION_TYPE":"U","NORAD_CAT_ID":47750,"ELEMENT_SET_NO":999,"REV_AT_EPOCH":27797,"BSTAR":0.00057481,"MEAN_MOTION_DOT":0.00016705,"MEAN_MOTION_DDOT":0},{"OBJECT_NAME":"TEVEL2-3","OBJECT_ID":"2025-052J","EPOCH":"2026-03-09T15:29:22.754400","MEAN_MOTION":15.30377031,"ECCENTRICITY":0.0004761,"INCLINATION":97.3994,"RA_OF_ASC_NODE":324.7775,"ARG_OF_PERICENTER":105.7353,"MEAN_ANOMALY":254.4413,"EPHEMERIS_TYPE":0,"CLASSIFICATION_TYPE":"U","NORAD_CAT_ID":63218,"ELEMENT_SET_NO":999,"REV_AT_EPOCH":5485,"BSTAR":0.00069446,"MEAN_MOTION_DOT":0.00020365,"MEAN_MOTION_DDOT":0}]
